{"spkid": "20503941", "covariance": {"epoch": "2456658.5", "data": [["2.196223822131724E-16", "-3.189960336674704E-16", "-1.324196499151119E-14", "-2.743847033717518E-14", "5.892451000403037E-14", "-1.661857383073888E-14"], ["-3.189960336674704E-16", "4.633339001181166E-16", "1.923384421200528E-14", "3.983503442043657E-14", "-8.556602074595822E-14", "2.415237824782116E-14"], ["-1.324196499151119E-14", "1.923384421200528E-14", "7.999576374635737E-13", "1.69561077212318E-12", "-3.590393441943758E-12", "1.108316221086942E-12"], ["-2.743847033717518E-14", "3.983503442043657E-14", "1.69561077212318E-12", "1.740617193392669E-11", "-2.155797837321759E-11", "1.555317407867914E-11"], ["5.892451000403037E-14", "-8.556602074595822E-14", "-3.590393441943758E-12", "-2.155797837321759E-11", "3.025282842559168E-11", "-1.754714779839581E-11"], ["-1.661857383073888E-14", "2.415237824782116E-14", "1.108316221086942E-12", "1.555317407867914E-11", "-1.754714779839581E-11", "3.206472130165453E-11"]], "elements": [{"name": "e", "sigma": 1.48196620141342e-08, "units": null, "value": ".7628872884921084", "title": "eccentricity", "label": "e"}, {"units": "au", "title": "perihelion distance", "value": ".3444794453385826", "name": "q", "sigma": 2.15251922202362e-08, "label": "q"}, {"name": "tp", "sigma": 8.94403509308619e-07, "units": "TDB", "title": "time of perihelion passage", "value": "2456824.708719604342", "label": "tp"}, {"units": "deg", "value": "31.9545135749061", "title": "longitude of the ascending node", "sigma": 4.17207046128498e-06, "name": "om", "label": "node"}, {"units": "deg", "value": "124.762160952963", "title": "argument of perihelion", "sigma": 5.50025712358901e-06, "name": "w", "label": "peri"}, {"label": "i", "title": "inclination", "value": "5.926670139144913", "units": "deg", "name": "i", "sigma": 5.66257196878367e-06}], "labels": ["e", "q", "tp", "node", "peri", "i"]}, "elements": [{"title": "eccentricity", "value": ".762774856730465", "units": null, "sigma": "1.4827E-8", "name": "e", "label": "e"}, {"label": "a", "units": "au", "title": "semi-major axis", "value": "1.453494543656695", "sigma": "7.453E-10", "name": "a"}, {"label": "q", "units": "au", "title": "perihelion distance", "value": ".344805451360447", "name": "q", "sigma": "2.1537E-8"}, {"label": "i", "sigma": "5.6735E-6", "name": "i", "units": "deg", "title": "inclination; angle with respect to x-y ecliptic plane", "value": "5.932243757493386"}, {"label": "node", "sigma": "4.1343E-6", "name": "om", "title": "longitude of the ascending node", "value": "31.76133143493159", "units": "deg"}, {"label": "peri", "value": "124.9552430223306", "title": "argument of perihelion", "units": "deg", "sigma": "5.4743E-6", "name": "w"}, {"title": "mean anomaly", "value": "301.5273840783738", "units": "deg", "sigma": "4.5305E-7", "name": "ma", "label": "M"}, {"sigma": "8.4482E-7", "name": "tp", "title": "time of perihelion passage", "value": "2461304.460547576664", "units": "TDB", "label": "tp"}, {"name": "per", "sigma": "4.923E-7", "units": "d", "title": "sidereal orbital period", "value": "640.0568289566966", "label": "period"}, {"name": "n", "sigma": "4.3261E-10", "title": "mean motion", "value": ".5624500571094696", "units": "deg/d", "label": "n"}, {"label": "Q", "name": "ad", "sigma": "1.3138E-9", "title": "aphelion distance", "value": "2.562183635952944", "units": "au"}], "epoch": "2461200.5"}